OBJECT C                
1 57582U 23117C   24286.89233370  .00016845  00000+0  80145-3 0  9992
2 57582  97.4754 357.5059 0009134 239.7033 120.3299 15.19206664 65033
